{"fetched_at":"2026-03-29T02:12:04Z","count":15717,"tles":[{"name":"STARLINK-32811","line1":"1 63039U 25034L   26087.49196910  .00010727  00000+0  37362-3 0  9997","line2":"2 63039  53.1600 170.9217 0001509  77.7238 282.3932 15.30214458 61968","category":"Starlink"}]}